STARLINK-31744          
1 59494U 24071L   26067.22915303  .00001769  00000+0  73732-4 0  9999
2 59494  43.0052 355.6563 0001065 283.7136  76.3597 15.27607308107893
BLUEBON                 
1 62688U 25009CH  26068.70316231  .00010452  00000+0  37313-3 0  9992
2 62688  97.4017 152.2033 0001193  43.3900 316.7434 15.29047253 63767
